{
"type": "FeatureCollection",
"name": "cafe",
"crs": { "type": "name", "properties": { "name": "urn:ogc:def:crs:OGC:1.3:CRS84" } },
"features": [
{ "type": "Feature", "properties": { "name": "Coffee Bean & Tea Leaf", "amenity": "cafe", "cuisine": "coffee_shop", "facebook": null, "website": null }, "geometry": { "type": "Point", "coordinates": [ 120.98557690765125, 14.570935066528575 ] } },
{ "type": "Feature", "properties": { "name": "Aujen's Coffee", "amenity": "cafe", "cuisine": "coffee_shop", "facebook": null, "website": null }, "geometry": { "type": "Point", "coordinates": [ 120.974225285129009, 14.591737883657405 ] } },
{ "type": "Feature", "properties": { "name": "John's Sip & Toast", "amenity": "cafe", "cuisine": "coffee_shop", "facebook": null, "website": null }, "geometry": { "type": "Point", "coordinates": [ 120.989945680301886, 14.604792819526622 ] } },
{ "type": "Feature", "properties": { "name": "Starbucks", "amenity": "cafe", "cuisine": "coffee_shop", "facebook": null, "website": null }, "geometry": { "type": "Point", "coordinates": [ 120.992241677810469, 14.566673808185209 ] } },
{ "type": "Feature", "properties": { "name": "McDonald's", "amenity": "cafe", "cuisine": "bubble_tea", "facebook": null, "website": null }, "geometry": { "type": "Point", "coordinates": [ 121.012573099999983, 14.5813479 ] } },
{ "type": "Feature", "properties": { "name": "Dakasi", "amenity": "cafe", "cuisine": null, "facebook": null, "website": null }, "geometry": { "type": "Point", "coordinates": [ 120.986375618973497, 14.609767533817374 ] } },
{ "type": "Feature", "properties": { "name": "Beanleaf", "amenity": "cafe", "cuisine": "coffee_shop", "facebook": null, "website": null }, "geometry": { "type": "Point", "coordinates": [ 120.972202314410239, 14.592755352705064 ] } },
{ "type": "Feature", "properties": { "name": "Starbucks", "amenity": "cafe", "cuisine": "coffee_shop", "facebook": null, "website": null }, "geometry": { "type": "Point", "coordinates": [ 120.9783098, 14.5789093 ] } },
{ "type": "Feature", "properties": { "name": "Starbucks", "amenity": "cafe", "cuisine": "coffee_shop", "facebook": null, "website": null }, "geometry": { "type": "Point", "coordinates": [ 120.9948528, 14.5626968 ] } },
{ "type": "Feature", "properties": { "name": "Starbucks", "amenity": "cafe", "cuisine": "coffee_shop", "facebook": null, "website": null }, "geometry": { "type": "Point", "coordinates": [ 120.9854176, 14.618411 ] } },
{ "type": "Feature", "properties": { "name": "Starbucks", "amenity": "cafe", "cuisine": "coffee_shop", "facebook": null, "website": null }, "geometry": { "type": "Point", "coordinates": [ 120.9822269, 14.5901829 ] } },
{ "type": "Feature", "properties": { "name": "Starbucks", "amenity": "cafe", "cuisine": "coffee_shop", "facebook": null, "website": null }, "geometry": { "type": "Point", "coordinates": [ 120.9809757, 14.580341 ] } },
{ "type": "Feature", "properties": { "name": "Za's Cafe", "amenity": "cafe", "cuisine": null, "facebook": null, "website": null }, "geometry": { "type": "Point", "coordinates": [ 120.9819758, 14.578805 ] } },
{ "type": "Feature", "properties": { "name": "Flower Stories Cafe", "amenity": "cafe", "cuisine": null, "facebook": null, "website": null }, "geometry": { "type": "Point", "coordinates": [ 120.9750377, 14.5915158 ] } },
{ "type": "Feature", "properties": { "name": "Gen. Luna Cafe", "amenity": "cafe", "cuisine": null, "facebook": null, "website": null }, "geometry": { "type": "Point", "coordinates": [ 120.9875542, 14.5812339 ] } },
{ "type": "Feature", "properties": { "name": "Starbucks", "amenity": "cafe", "cuisine": "coffee_shop", "facebook": null, "website": null }, "geometry": { "type": "Point", "coordinates": [ 120.9839407, 14.5588823 ] } },
{ "type": "Feature", "properties": { "name": "Starbucks", "amenity": "cafe", "cuisine": "coffee_shop", "facebook": null, "website": null }, "geometry": { "type": "Point", "coordinates": [ 120.9815058, 14.5731139 ] } },
{ "type": "Feature", "properties": { "name": "Café Breton", "amenity": "cafe", "cuisine": null, "facebook": null, "website": null }, "geometry": { "type": "Point", "coordinates": [ 120.9841752, 14.5749519 ] } },
{ "type": "Feature", "properties": { "name": "Starbucks", "amenity": "cafe", "cuisine": "coffee_shop", "facebook": null, "website": null }, "geometry": { "type": "Point", "coordinates": [ 120.9946136, 14.5642099 ] } },
{ "type": "Feature", "properties": { "name": "The Coffee Bean & Tea Leaf", "amenity": "cafe", "cuisine": "coffee_shop", "facebook": null, "website": null }, "geometry": { "type": "Point", "coordinates": [ 120.9804423, 14.5751508 ] } },
{ "type": "Feature", "properties": { "name": "Dunkin Donuts", "amenity": "cafe", "cuisine": "coffee_shop", "facebook": null, "website": null }, "geometry": { "type": "Point", "coordinates": [ 120.9882534, 14.6053179 ] } },
{ "type": "Feature", "properties": { "name": "Cafe Adriatico", "amenity": "cafe", "cuisine": "coffee_shop", "facebook": null, "website": null }, "geometry": { "type": "Point", "coordinates": [ 120.9860892, 14.5704275 ] } },
{ "type": "Feature", "properties": { "name": "Figaro", "amenity": "cafe", "cuisine": "coffee_shop", "facebook": null, "website": null }, "geometry": { "type": "Point", "coordinates": [ 120.9858715, 14.5704735 ] } },
{ "type": "Feature", "properties": { "name": "Landap Café", "amenity": "cafe", "cuisine": null, "facebook": null, "website": null }, "geometry": { "type": "Point", "coordinates": [ 120.9848794, 14.5963182 ] } },
{ "type": "Feature", "properties": { "name": "Seattle's Best Coffee", "amenity": "cafe", "cuisine": "coffee_shop", "facebook": null, "website": null }, "geometry": { "type": "Point", "coordinates": [ 120.9952252, 14.5630799 ] } },
{ "type": "Feature", "properties": { "name": "Obscure Cafe", "amenity": "cafe", "cuisine": "coffee_shop", "facebook": null, "website": null }, "geometry": { "type": "Point", "coordinates": [ 120.9925652, 14.5665572 ] } },
{ "type": "Feature", "properties": { "name": "Mr Brown's", "amenity": "cafe", "cuisine": null, "facebook": null, "website": null }, "geometry": { "type": "Point", "coordinates": [ 120.9968039, 14.5656106 ] } },
{ "type": "Feature", "properties": { "name": "Cha Tuk Chak", "amenity": "cafe", "cuisine": "bubble_tea", "facebook": null, "website": "https://www.chatukchak.com/" }, "geometry": { "type": "Point", "coordinates": [ 121.0125719, 14.5818125 ] } },
{ "type": "Feature", "properties": { "name": "Kai Cha Milk Tea", "amenity": "cafe", "cuisine": null, "facebook": null, "website": null }, "geometry": { "type": "Point", "coordinates": [ 121.0136564, 14.5814782 ] } },
{ "type": "Feature", "properties": { "name": "Liyah Kaffea", "amenity": "cafe", "cuisine": null, "facebook": null, "website": null }, "geometry": { "type": "Point", "coordinates": [ 121.0115883, 14.5811705 ] } },
{ "type": "Feature", "properties": { "name": "TAMbayan", "amenity": "cafe", "cuisine": null, "facebook": null, "website": null }, "geometry": { "type": "Point", "coordinates": [ 120.9882679, 14.603797 ] } },
{ "type": "Feature", "properties": { "name": "Madbrews", "amenity": "cafe", "cuisine": null, "facebook": null, "website": null }, "geometry": { "type": "Point", "coordinates": [ 120.988088, 14.6050321 ] } },
{ "type": "Feature", "properties": { "name": "DCream", "amenity": "cafe", "cuisine": null, "facebook": null, "website": null }, "geometry": { "type": "Point", "coordinates": [ 120.9887296, 14.6054686 ] } },
{ "type": "Feature", "properties": { "name": "Hoppers", "amenity": "cafe", "cuisine": null, "facebook": null, "website": null }, "geometry": { "type": "Point", "coordinates": [ 120.9876947, 14.6047406 ] } },
{ "type": "Feature", "properties": { "name": "Frappeetea", "amenity": "cafe", "cuisine": null, "facebook": null, "website": null }, "geometry": { "type": "Point", "coordinates": [ 120.9902573, 14.603277 ] } },
{ "type": "Feature", "properties": { "name": "Churros House", "amenity": "cafe", "cuisine": null, "facebook": null, "website": null }, "geometry": { "type": "Point", "coordinates": [ 120.987749, 14.6054716 ] } },
{ "type": "Feature", "properties": { "name": "D'Cream", "amenity": "cafe", "cuisine": "Milk_Tea", "facebook": null, "website": null }, "geometry": { "type": "Point", "coordinates": [ 120.9905585, 14.6025809 ] } },
{ "type": "Feature", "properties": { "name": "The Wicked Waffle", "amenity": "cafe", "cuisine": null, "facebook": null, "website": null }, "geometry": { "type": "Point", "coordinates": [ 120.9890237, 14.6051196 ] } },
{ "type": "Feature", "properties": { "name": "It's Caffeine", "amenity": "cafe", "cuisine": null, "facebook": null, "website": null }, "geometry": { "type": "Point", "coordinates": [ 120.9878943, 14.6044866 ] } },
{ "type": "Feature", "properties": { "name": "Frappeetea", "amenity": "cafe", "cuisine": null, "facebook": null, "website": null }, "geometry": { "type": "Point", "coordinates": [ 120.9882449, 14.6035635 ] } },
{ "type": "Feature", "properties": { "name": "D'Cream", "amenity": "cafe", "cuisine": null, "facebook": null, "website": null }, "geometry": { "type": "Point", "coordinates": [ 120.9887099, 14.6033238 ] } },
{ "type": "Feature", "properties": { "name": "Brewing beyond coffee", "amenity": "cafe", "cuisine": null, "facebook": null, "website": null }, "geometry": { "type": "Point", "coordinates": [ 120.9873428, 14.6057951 ] } },
{ "type": "Feature", "properties": { "name": "Taste from the Greens", "amenity": "cafe", "cuisine": null, "facebook": null, "website": null }, "geometry": { "type": "Point", "coordinates": [ 120.9667961, 14.6069787 ] } },
{ "type": "Feature", "properties": { "name": "Starbucks", "amenity": "cafe", "cuisine": "coffee_shop", "facebook": null, "website": "https://www.starbucks.com/" }, "geometry": { "type": "Point", "coordinates": [ 120.9890259, 14.6069767 ] } },
{ "type": "Feature", "properties": { "name": "Cameo Café", "amenity": "cafe", "cuisine": null, "facebook": null, "website": null }, "geometry": { "type": "Point", "coordinates": [ 120.9804781, 14.5749562 ] } },
{ "type": "Feature", "properties": { "name": "Bo's Coffee", "amenity": "cafe", "cuisine": null, "facebook": null, "website": null }, "geometry": { "type": "Point", "coordinates": [ 120.9922471, 14.5672765 ] } },
{ "type": "Feature", "properties": { "name": "Amo Yamie Crib", "amenity": "cafe", "cuisine": "coffee_shop;pizza;pasta;burger;cake;ice_cream", "facebook": null, "website": "https://m.facebook.com/AmoYamieCrib/" }, "geometry": { "type": "Point", "coordinates": [ 120.9898192, 14.6064279 ] } },
{ "type": "Feature", "properties": { "name": "Amo Yamie Crib", "amenity": "cafe", "cuisine": "burger;cake;coffee_shop;ice_cream;pizza;sandwich", "facebook": null, "website": "https://m.facebook.com/AmoYamieCrib/" }, "geometry": { "type": "Point", "coordinates": [ 120.9905635, 14.6000056 ] } },
{ "type": "Feature", "properties": { "name": "Essense", "amenity": "cafe", "cuisine": "chinese", "facebook": null, "website": null }, "geometry": { "type": "Point", "coordinates": [ 120.9702098, 14.5996731 ] } },
{ "type": "Feature", "properties": { "name": "ZAGU", "amenity": "cafe", "cuisine": null, "facebook": null, "website": null }, "geometry": { "type": "Point", "coordinates": [ 120.9880952, 14.6037319 ] } },
{ "type": "Feature", "properties": { "name": "Moonleaf + Bunnies Cafe", "amenity": "cafe", "cuisine": "snacks", "facebook": null, "website": null }, "geometry": { "type": "Point", "coordinates": [ 120.9742539, 14.6008644 ] } },
{ "type": "Feature", "properties": { "name": "Cristopiy", "amenity": "cafe", "cuisine": "american", "facebook": null, "website": null }, "geometry": { "type": "Point", "coordinates": [ 120.9934886, 14.6145351 ] } },
{ "type": "Feature", "properties": { "name": "Mineski Infinity", "amenity": "cafe", "cuisine": null, "facebook": null, "website": null }, "geometry": { "type": "Point", "coordinates": [ 120.9905579, 14.602542 ] } },
{ "type": "Feature", "properties": { "name": "Starbucks", "amenity": "cafe", "cuisine": "coffee_shop", "facebook": null, "website": null }, "geometry": { "type": "Point", "coordinates": [ 120.9931533, 14.5979302 ] } },
{ "type": "Feature", "properties": { "name": "Hugot Cafe", "amenity": "cafe", "cuisine": null, "facebook": null, "website": null }, "geometry": { "type": "Point", "coordinates": [ 120.9803154, 14.6319834 ] } },
{ "type": "Feature", "properties": { "name": "Cafe Alfredo", "amenity": "cafe", "cuisine": null, "facebook": null, "website": null }, "geometry": { "type": "Point", "coordinates": [ 120.9856275, 14.6042629 ] } },
{ "type": "Feature", "properties": { "name": "Smynoshery", "amenity": "cafe", "cuisine": null, "facebook": null, "website": null }, "geometry": { "type": "Point", "coordinates": [ 120.990337, 14.6066775 ] } },
{ "type": "Feature", "properties": { "name": "Starbucks", "amenity": "cafe", "cuisine": "coffee_shop", "facebook": null, "website": null }, "geometry": { "type": "Point", "coordinates": [ 120.9960193, 14.5876025 ] } },
{ "type": "Feature", "properties": { "name": "Cafe Khivan", "amenity": "cafe", "cuisine": null, "facebook": null, "website": null }, "geometry": { "type": "Point", "coordinates": [ 120.9876337, 14.6083378 ] } },
{ "type": "Feature", "properties": { "name": "Starbuck's Coffee", "amenity": "cafe", "cuisine": null, "facebook": null, "website": null }, "geometry": { "type": "Point", "coordinates": [ 120.9869675, 14.610604 ] } },
{ "type": "Feature", "properties": { "name": "Starbucks", "amenity": "cafe", "cuisine": null, "facebook": null, "website": null }, "geometry": { "type": "Point", "coordinates": [ 120.990737, 14.6105915 ] } },
{ "type": "Feature", "properties": { "name": "Dunkin' Donuts", "amenity": "cafe", "cuisine": null, "facebook": null, "website": null }, "geometry": { "type": "Point", "coordinates": [ 121.0230682, 14.5897318 ] } },
{ "type": "Feature", "properties": { "name": "Cafe Ilang-Ilang", "amenity": "cafe", "cuisine": null, "facebook": null, "website": null }, "geometry": { "type": "Point", "coordinates": [ 120.9734262, 14.5831634 ] } },
{ "type": "Feature", "properties": { "name": "Floticafe", "amenity": "cafe", "cuisine": null, "facebook": null, "website": null }, "geometry": { "type": "Point", "coordinates": [ 120.9936056, 14.6085659 ] } },
{ "type": "Feature", "properties": { "name": "Dakasi", "amenity": "cafe", "cuisine": null, "facebook": null, "website": null }, "geometry": { "type": "Point", "coordinates": [ 120.9950889, 14.5651517 ] } },
{ "type": "Feature", "properties": { "name": "Tim Hortons", "amenity": "cafe", "cuisine": "coffee_shop", "facebook": null, "website": null }, "geometry": { "type": "Point", "coordinates": [ 120.9871709, 14.5835499 ] } },
{ "type": "Feature", "properties": { "name": "Savory Bustillos", "amenity": "cafe", "cuisine": "chinese;chicken;filipino", "facebook": null, "website": null }, "geometry": { "type": "Point", "coordinates": [ 120.9932819, 14.6055663 ] } },
{ "type": "Feature", "properties": { "name": "The Grand Towers", "amenity": "cafe", "cuisine": null, "facebook": null, "website": null }, "geometry": { "type": "Point", "coordinates": [ 120.9947587, 14.5622799 ] } },
{ "type": "Feature", "properties": { "name": "Cafe aquatica", "amenity": "cafe", "cuisine": null, "facebook": null, "website": null }, "geometry": { "type": "Point", "coordinates": [ 120.9745236, 14.6003751 ] } },
{ "type": "Feature", "properties": { "name": "Sabroso's Comfort Food", "amenity": "cafe", "cuisine": null, "facebook": null, "website": null }, "geometry": { "type": "Point", "coordinates": [ 121.0186163, 14.5916293 ] } },
{ "type": "Feature", "properties": { "name": "Seattle's Best", "amenity": "cafe", "cuisine": "coffee_shop", "facebook": null, "website": null }, "geometry": { "type": "Point", "coordinates": [ 120.9826045, 14.5824381 ] } },
{ "type": "Feature", "properties": { "name": "Aventino’s D’Lounge", "amenity": "cafe", "cuisine": null, "facebook": null, "website": null }, "geometry": { "type": "Point", "coordinates": [ 120.9930029, 14.5661119 ] } },
{ "type": "Feature", "properties": { "name": "Infinitea", "amenity": "cafe", "cuisine": null, "facebook": null, "website": null }, "geometry": { "type": "Point", "coordinates": [ 120.9927148, 14.5667181 ] } },
{ "type": "Feature", "properties": { "name": "Starbucks", "amenity": "cafe", "cuisine": "coffee_shop", "facebook": null, "website": null }, "geometry": { "type": "Point", "coordinates": [ 120.9876539, 14.6034763 ] } },
{ "type": "Feature", "properties": { "name": "Treehouse", "amenity": "cafe", "cuisine": null, "facebook": null, "website": null }, "geometry": { "type": "Point", "coordinates": [ 120.9930937, 14.5657624 ] } },
{ "type": "Feature", "properties": { "name": "Honesty Cafe", "amenity": "cafe", "cuisine": null, "facebook": null, "website": null }, "geometry": { "type": "Point", "coordinates": [ 121.0010339, 14.5690366 ] } },
{ "type": "Feature", "properties": { "name": "Coffee Project co-lab", "amenity": "cafe", "cuisine": null, "facebook": null, "website": null }, "geometry": { "type": "Point", "coordinates": [ 120.9947741, 14.5630636 ] } },
{ "type": "Feature", "properties": { "name": "Cuervorito", "amenity": "cafe", "cuisine": null, "facebook": null, "website": null }, "geometry": { "type": "Point", "coordinates": [ 120.9922774, 14.5750641 ] } },
{ "type": "Feature", "properties": { "name": "The Den", "amenity": "cafe", "cuisine": "coffee_shop", "facebook": "https://www.facebook.com/TheDenManila/", "website": null }, "geometry": { "type": "Point", "coordinates": [ 120.9793392, 14.5989419 ] } },
{ "type": "Feature", "properties": { "name": "Isa Una Kapihan & Atbp", "amenity": "cafe", "cuisine": "coffee_shop;regional", "facebook": null, "website": null }, "geometry": { "type": "Point", "coordinates": [ 121.0023251, 14.5656533 ] } },
{ "type": "Feature", "properties": { "name": "Paper + Café", "amenity": "cafe", "cuisine": null, "facebook": null, "website": null }, "geometry": { "type": "Point", "coordinates": [ 120.9784567, 14.5882636 ] } },
{ "type": "Feature", "properties": { "name": "Starbucks", "amenity": "cafe", "cuisine": "coffee_shop", "facebook": null, "website": null }, "geometry": { "type": "Point", "coordinates": [ 120.9758487, 14.5885008 ] } },
{ "type": "Feature", "properties": { "name": "Swig", "amenity": "cafe", "cuisine": null, "facebook": null, "website": null }, "geometry": { "type": "Point", "coordinates": [ 121.0112063, 14.5789577 ] } },
{ "type": "Feature", "properties": { "name": "Bo's Coffee", "amenity": "cafe", "cuisine": "coffee_shop;cake;pasta;tea", "facebook": null, "website": null }, "geometry": { "type": "Point", "coordinates": [ 120.9865488, 14.6183817 ] } },
{ "type": "Feature", "properties": { "name": "Bo's Coffee", "amenity": "cafe", "cuisine": "coffee_shop;pasta;tea;sandwich", "facebook": null, "website": null }, "geometry": { "type": "Point", "coordinates": [ 120.9902749, 14.6126854 ] } },
{ "type": "Feature", "properties": { "name": "MaiCafe", "amenity": "cafe", "cuisine": "coffee_shop;pasta;japanese;filipino", "facebook": null, "website": null }, "geometry": { "type": "Point", "coordinates": [ 120.9881694, 14.6132318 ] } },
{ "type": "Feature", "properties": { "name": "Hashi Donburi", "amenity": "cafe", "cuisine": "japanese", "facebook": null, "website": null }, "geometry": { "type": "Point", "coordinates": [ 120.9904271, 14.6136923 ] } },
{ "type": "Feature", "properties": { "name": "Redbuck's", "amenity": "cafe", "cuisine": "coffee_shop;pizza;american", "facebook": null, "website": null }, "geometry": { "type": "Point", "coordinates": [ 120.9920602, 14.6118388 ] } },
{ "type": "Feature", "properties": { "name": "Starr's Famous Shakes", "amenity": "cafe", "cuisine": null, "facebook": null, "website": null }, "geometry": { "type": "Point", "coordinates": [ 120.987558, 14.6127646 ] } },
{ "type": "Feature", "properties": { "name": "Tim Hortons", "amenity": "cafe", "cuisine": "coffee_shop", "facebook": null, "website": null }, "geometry": { "type": "Point", "coordinates": [ 120.9854817, 14.6190583 ] } },
{ "type": "Feature", "properties": { "name": "Starbucks", "amenity": "cafe", "cuisine": "coffee_shop;pasta;sandwich", "facebook": null, "website": null }, "geometry": { "type": "Point", "coordinates": [ 120.9913515, 14.6080618 ] } },
{ "type": "Feature", "properties": { "name": "Cool-In Coffee Shop", "amenity": "cafe", "cuisine": null, "facebook": null, "website": null }, "geometry": { "type": "Point", "coordinates": [ 120.9776668, 14.5980411 ] } },
{ "type": "Feature", "properties": { "name": "Starbucks", "amenity": "cafe", "cuisine": "coffee_shop", "facebook": null, "website": null }, "geometry": { "type": "Point", "coordinates": [ 120.977702, 14.5929756 ] } },
{ "type": "Feature", "properties": { "name": "Kei Coffee", "amenity": "cafe", "cuisine": null, "facebook": null, "website": null }, "geometry": { "type": "Point", "coordinates": [ 120.9848643, 14.5700109 ] } },
{ "type": "Feature", "properties": { "name": "Cafe Romancon", "amenity": "cafe", "cuisine": null, "facebook": null, "website": null }, "geometry": { "type": "Point", "coordinates": [ 120.9977639, 14.56613 ] } },
{ "type": "Feature", "properties": { "name": "Moonleaf", "amenity": "cafe", "cuisine": "bubble_tea", "facebook": null, "website": null }, "geometry": { "type": "Point", "coordinates": [ 120.9781466, 14.5892844 ] } },
{ "type": "Feature", "properties": { "name": "Cioccolata", "amenity": "cafe", "cuisine": null, "facebook": null, "website": null }, "geometry": { "type": "Point", "coordinates": [ 120.9788274, 14.5898658 ] } },
{ "type": "Feature", "properties": { "name": "Bo's Coffee", "amenity": "cafe", "cuisine": "coffee_shop", "facebook": null, "website": null }, "geometry": { "type": "Point", "coordinates": [ 120.9833249, 14.5902643 ] } },
{ "type": "Feature", "properties": { "name": "Black Scoop Cafe", "amenity": "cafe", "cuisine": "asian;coffee_shop;regional", "facebook": null, "website": null }, "geometry": { "type": "Point", "coordinates": [ 120.9870709, 14.5836968 ] } },
{ "type": "Feature", "properties": { "name": "La Cathedral Cafe", "amenity": "cafe", "cuisine": null, "facebook": null, "website": null }, "geometry": { "type": "Point", "coordinates": [ 120.9741211, 14.5912312 ] } },
{ "type": "Feature", "properties": { "name": "Figaro", "amenity": "cafe", "cuisine": "coffee_shop", "facebook": null, "website": null }, "geometry": { "type": "Point", "coordinates": [ 120.9733493, 14.5931329 ] } },
{ "type": "Feature", "properties": { "name": "Cha Tuk Chak", "amenity": "cafe", "cuisine": "bubble_tea", "facebook": null, "website": "https://www.chatukchak.com/" }, "geometry": { "type": "Point", "coordinates": [ 120.9777572, 14.6068006 ] } },
{ "type": "Feature", "properties": { "name": "Cafe Mezzanine", "amenity": "cafe", "cuisine": null, "facebook": null, "website": null }, "geometry": { "type": "Point", "coordinates": [ 120.9754972, 14.6004366 ] } },
{ "type": "Feature", "properties": { "name": "Starbucks", "amenity": "cafe", "cuisine": "coffee_shop", "facebook": null, "website": null }, "geometry": { "type": "Point", "coordinates": [ 120.9757216, 14.5985919 ] } },
{ "type": "Feature", "properties": { "name": "Eng Ho Cafe & Deli", "amenity": "cafe", "cuisine": null, "facebook": null, "website": null }, "geometry": { "type": "Point", "coordinates": [ 120.9787674, 14.6023647 ] } },
{ "type": "Feature", "properties": { "name": "Yi Fang", "amenity": "cafe", "cuisine": null, "facebook": null, "website": null }, "geometry": { "type": "Point", "coordinates": [ 120.9942038, 14.5650926 ] } },
{ "type": "Feature", "properties": { "name": "Redbucks Cafe", "amenity": "cafe", "cuisine": null, "facebook": null, "website": null }, "geometry": { "type": "Point", "coordinates": [ 120.992043, 14.6230988 ] } },
{ "type": "Feature", "properties": { "name": "Cafe Tribu", "amenity": "cafe", "cuisine": null, "facebook": null, "website": null }, "geometry": { "type": "Point", "coordinates": [ 120.992671, 14.6234026 ] } },
{ "type": "Feature", "properties": { "name": "Starbucks", "amenity": "cafe", "cuisine": "coffee_shop", "facebook": null, "website": null }, "geometry": { "type": "Point", "coordinates": [ 121.0126915, 14.5818947 ] } },
{ "type": "Feature", "properties": { "name": "Happy Cup", "amenity": "cafe", "cuisine": "bubble_tea", "facebook": null, "website": null }, "geometry": { "type": "Point", "coordinates": [ 121.0124154, 14.5814417 ] } },
{ "type": "Feature", "properties": { "name": "Tim Hortons", "amenity": "cafe", "cuisine": "coffee_shop", "facebook": null, "website": null }, "geometry": { "type": "Point", "coordinates": [ 120.9953994, 14.5623907 ] } },
{ "type": "Feature", "properties": { "name": "BigBrew Dapitan", "amenity": "cafe", "cuisine": "bubble_tea", "facebook": "https://www.facebook.com/BigBrewDapitanMNL", "website": null }, "geometry": { "type": "Point", "coordinates": [ 120.9903797, 14.6138846 ] } },
{ "type": "Feature", "properties": { "name": "Lucky Chai Cafe", "amenity": "cafe", "cuisine": "bubble_tea", "facebook": "https://www.facebook.com/LuckyChaiCafe", "website": null }, "geometry": { "type": "Point", "coordinates": [ 120.9669305, 14.6041256 ] } },
{ "type": "Feature", "properties": { "name": "Cha Tuk Chak", "amenity": "cafe", "cuisine": "thai", "facebook": null, "website": null }, "geometry": { "type": "Point", "coordinates": [ 120.9927414, 14.5682483 ] } },
{ "type": "Feature", "properties": { "name": "Tap Tea", "amenity": "cafe", "cuisine": "bubble_tea", "facebook": "https://www.facebook.com/Tap-Tea-107596854966427", "website": null }, "geometry": { "type": "Point", "coordinates": [ 120.9667347, 14.6139988 ] } },
{ "type": "Feature", "properties": { "name": "Kape Siklo", "amenity": "cafe", "cuisine": "breakfast;coffee_shop;diner;pancake;pasta;sandwich;savory_pancakes", "facebook": null, "website": "https://www.facebook.com/Kape.Siklo/" }, "geometry": { "type": "Point", "coordinates": [ 121.0057308, 14.5909497 ] } },
{ "type": "Feature", "properties": { "name": "Belfry Café", "amenity": "cafe", "cuisine": null, "facebook": null, "website": null }, "geometry": { "type": "Point", "coordinates": [ 120.973632, 14.5919097 ] } },
{ "type": "Feature", "properties": { "name": "Black Scoop Cafe", "amenity": "cafe", "cuisine": "bubble_tea", "facebook": null, "website": "https://www.blackscoopcafe.com/" }, "geometry": { "type": "Point", "coordinates": [ 120.9778193, 14.6069247 ] } },
{ "type": "Feature", "properties": { "name": "Bon Appetea", "amenity": "cafe", "cuisine": "bubble_tea", "facebook": null, "website": "https://www.bonappetea.com/" }, "geometry": { "type": "Point", "coordinates": [ 120.9776178, 14.5969994 ] } },
{ "type": "Feature", "properties": { "name": "Sharetea", "amenity": "cafe", "cuisine": "bubble_tea", "facebook": null, "website": null }, "geometry": { "type": "Point", "coordinates": [ 120.974993, 14.6000608 ] } },
{ "type": "Feature", "properties": { "name": "Black Scoop Cafe", "amenity": "cafe", "cuisine": "bubble_tea", "facebook": null, "website": null }, "geometry": { "type": "Point", "coordinates": [ 120.9811162, 14.6003699 ] } },
{ "type": "Feature", "properties": { "name": "Kape Barato", "amenity": "cafe", "cuisine": "coffee_shop", "facebook": null, "website": null }, "geometry": { "type": "Point", "coordinates": [ 121.0092923, 14.5856231 ] } },
{ "type": "Feature", "properties": { "name": "Dunkin Donut Petron - España", "amenity": "cafe", "cuisine": "donut;coffee_shop", "facebook": null, "website": null }, "geometry": { "type": "Point", "coordinates": [ 120.9991803, 14.6150156 ] } },
{ "type": "Feature", "properties": { "name": "Tzu Chi Café", "amenity": "cafe", "cuisine": null, "facebook": null, "website": null }, "geometry": { "type": "Point", "coordinates": [ 121.0140158, 14.596345 ] } },
{ "type": "Feature", "properties": { "name": "Kurumi Milk Tea Bar", "amenity": "cafe", "cuisine": null, "facebook": null, "website": null }, "geometry": { "type": "Point", "coordinates": [ 120.9935621, 14.5665637 ] } },
{ "type": "Feature", "properties": { "name": "Colobaba Cafe", "amenity": "cafe", "cuisine": null, "facebook": null, "website": null }, "geometry": { "type": "Point", "coordinates": [ 120.9934561, 14.5668294 ] } },
{ "type": "Feature", "properties": { "name": "Projuice", "amenity": "cafe", "cuisine": null, "facebook": null, "website": null }, "geometry": { "type": "Point", "coordinates": [ 120.9947375, 14.5653511 ] } },
{ "type": "Feature", "properties": { "name": "Kaffeinated", "amenity": "cafe", "cuisine": null, "facebook": null, "website": null }, "geometry": { "type": "Point", "coordinates": [ 120.9926533, 14.5683871 ] } },
{ "type": "Feature", "properties": { "name": "royaltea", "amenity": "cafe", "cuisine": null, "facebook": null, "website": null }, "geometry": { "type": "Point", "coordinates": [ 120.9933474, 14.5659187 ] } },
{ "type": "Feature", "properties": { "name": "Abbyly Tea Cafe", "amenity": "cafe", "cuisine": null, "facebook": null, "website": null }, "geometry": { "type": "Point", "coordinates": [ 120.9952306, 14.5618428 ] } },
{ "type": "Feature", "properties": { "name": "Duke's Castle Cafe", "amenity": "cafe", "cuisine": null, "facebook": null, "website": null }, "geometry": { "type": "Point", "coordinates": [ 120.9861626, 14.608111 ] } },
{ "type": "Feature", "properties": { "name": "Boss Cafe", "amenity": "cafe", "cuisine": null, "facebook": null, "website": null }, "geometry": { "type": "Point", "coordinates": [ 120.9931512, 14.5661856 ] } },
{ "type": "Feature", "properties": { "name": "Milktea Shop", "amenity": "cafe", "cuisine": "bubble_tea", "facebook": null, "website": null }, "geometry": { "type": "Point", "coordinates": [ 120.9947445, 14.564671 ] } },
{ "type": "Feature", "properties": { "name": "Ezpresso", "amenity": "cafe", "cuisine": "coffee_shop", "facebook": null, "website": null }, "geometry": { "type": "Point", "coordinates": [ 120.9924366, 14.5661946 ] } },
{ "type": "Feature", "properties": { "name": "Chimmy", "amenity": "cafe", "cuisine": null, "facebook": null, "website": null }, "geometry": { "type": "Point", "coordinates": [ 120.9930222, 14.5659758 ] } },
{ "type": "Feature", "properties": { "name": "Quickly", "amenity": "cafe", "cuisine": "bubble_tea", "facebook": null, "website": null }, "geometry": { "type": "Point", "coordinates": [ 120.9927325, 14.566626 ] } },
{ "type": "Feature", "properties": { "name": "Nitro 7 Coffee Bar", "amenity": "cafe", "cuisine": null, "facebook": null, "website": null }, "geometry": { "type": "Point", "coordinates": [ 120.9930943, 14.5658193 ] } },
{ "type": "Feature", "properties": { "name": "BIG BOSS", "amenity": "cafe", "cuisine": null, "facebook": null, "website": null }, "geometry": { "type": "Point", "coordinates": [ 120.9932423, 14.5660753 ] } },
{ "type": "Feature", "properties": { "name": "St. Cafe Manila", "amenity": "cafe", "cuisine": null, "facebook": null, "website": null }, "geometry": { "type": "Point", "coordinates": [ 120.9926064, 14.5662592 ] } },
{ "type": "Feature", "properties": { "name": "Ezpresso", "amenity": "cafe", "cuisine": null, "facebook": null, "website": null }, "geometry": { "type": "Point", "coordinates": [ 120.9924041, 14.566167 ] } },
{ "type": "Feature", "properties": { "name": "Starbucks", "amenity": "cafe", "cuisine": "coffee_shop", "facebook": null, "website": null }, "geometry": { "type": "Point", "coordinates": [ 120.9738655, 14.6028015 ] } },
{ "type": "Feature", "properties": { "name": "Royal Tea", "amenity": "cafe", "cuisine": null, "facebook": null, "website": null }, "geometry": { "type": "Point", "coordinates": [ 120.9736092, 14.603693 ] } },
{ "type": "Feature", "properties": { "name": "J. Co", "amenity": "cafe", "cuisine": "donut", "facebook": null, "website": null }, "geometry": { "type": "Point", "coordinates": [ 120.973981, 14.603383 ] } },
{ "type": "Feature", "properties": { "name": "UCC Coffee Café Terrace", "amenity": "cafe", "cuisine": "coffee_shop", "facebook": null, "website": null }, "geometry": { "type": "Point", "coordinates": [ 120.9730901, 14.603116 ] } },
{ "type": "Feature", "properties": { "name": "The Coffee Bean & Tea Leaf", "amenity": "cafe", "cuisine": "coffee_shop", "facebook": null, "website": null }, "geometry": { "type": "Point", "coordinates": [ 120.9930681, 14.5650914 ] } },
{ "type": "Feature", "properties": { "name": "D’ Cream", "amenity": "cafe", "cuisine": null, "facebook": null, "website": null }, "geometry": { "type": "Point", "coordinates": [ 120.9945061, 14.5617304 ] } },
{ "type": "Feature", "properties": { "name": "Drip Kofi", "amenity": "cafe", "cuisine": null, "facebook": null, "website": null }, "geometry": { "type": "Point", "coordinates": [ 120.9943866, 14.565191 ] } },
{ "type": "Feature", "properties": { "name": "BoredEgg", "amenity": "cafe", "cuisine": null, "facebook": null, "website": null }, "geometry": { "type": "Point", "coordinates": [ 120.9790215, 14.5987554 ] } },
{ "type": "Feature", "properties": { "name": "Cafe Habib", "amenity": "cafe", "cuisine": "palestinian", "facebook": null, "website": null }, "geometry": { "type": "Point", "coordinates": [ 120.9811395, 14.578079 ] } },
{ "type": "Feature", "properties": { "name": "Big Brew Cafe", "amenity": "cafe", "cuisine": null, "facebook": null, "website": null }, "geometry": { "type": "Point", "coordinates": [ 121.0036472, 14.5917227 ] } },
{ "type": "Feature", "properties": { "name": "big brew", "amenity": "cafe", "cuisine": "coffee_shop", "facebook": null, "website": null }, "geometry": { "type": "Point", "coordinates": [ 120.9988117, 14.584359 ] } },
{ "type": "Feature", "properties": { "name": "Big Brew Cafe", "amenity": "cafe", "cuisine": null, "facebook": null, "website": null }, "geometry": { "type": "Point", "coordinates": [ 121.0003566, 14.5850257 ] } },
{ "type": "Feature", "properties": { "name": "Cafe Intramuros", "amenity": "cafe", "cuisine": null, "facebook": null, "website": null }, "geometry": { "type": "Point", "coordinates": [ 120.9750097, 14.5896171 ] } },
{ "type": "Feature", "properties": { "name": "Cafe Janealo", "amenity": "cafe", "cuisine": "coffee_shop", "facebook": null, "website": null }, "geometry": { "type": "Point", "coordinates": [ 120.9744016, 14.5916703 ] } },
{ "type": "Feature", "properties": { "name": "Mood Coffee", "amenity": "cafe", "cuisine": null, "facebook": null, "website": null }, "geometry": { "type": "Point", "coordinates": [ 120.9926171, 14.5663499 ] } },
{ "type": "Feature", "properties": { "name": "Juan Café", "amenity": "cafe", "cuisine": null, "facebook": null, "website": null }, "geometry": { "type": "Point", "coordinates": [ 120.9919657, 14.5672799 ] } },
{ "type": "Feature", "properties": { "name": "Coffee Spot", "amenity": "cafe", "cuisine": null, "facebook": null, "website": null }, "geometry": { "type": "Point", "coordinates": [ 120.9926611, 14.5667318 ] } },
{ "type": "Feature", "properties": { "name": "Juan Cafe", "amenity": "cafe", "cuisine": "coffee_shop;bubble_tea", "facebook": null, "website": null }, "geometry": { "type": "Point", "coordinates": [ 120.9918077, 14.5672108 ] } },
{ "type": "Feature", "properties": { "name": "Tealive", "amenity": "cafe", "cuisine": "bubble_tea", "facebook": null, "website": null }, "geometry": { "type": "Point", "coordinates": [ 120.9925192, 14.5672469 ] } },
{ "type": "Feature", "properties": { "name": "Hao Ming", "amenity": "cafe", "cuisine": "bubble_tea", "facebook": null, "website": null }, "geometry": { "type": "Point", "coordinates": [ 120.9919815, 14.5673899 ] } },
{ "type": "Feature", "properties": { "name": "Coffee Bean", "amenity": "cafe", "cuisine": null, "facebook": null, "website": null }, "geometry": { "type": "Point", "coordinates": [ 120.9928876, 14.5648183 ] } },
{ "type": "Feature", "properties": { "name": "Balai Kaffa", "amenity": "cafe", "cuisine": "coffee_shop;breakfast", "facebook": null, "website": null }, "geometry": { "type": "Point", "coordinates": [ 121.0126483, 14.5795006 ] } },
{ "type": "Feature", "properties": { "name": "CALLE CAFE", "amenity": "cafe", "cuisine": null, "facebook": null, "website": null }, "geometry": { "type": "Point", "coordinates": [ 121.0118887, 14.5784958 ] } },
{ "type": "Feature", "properties": { "name": "FaB Caffe", "amenity": "cafe", "cuisine": null, "facebook": null, "website": null }, "geometry": { "type": "Point", "coordinates": [ 121.0106569, 14.5779648 ] } },
{ "type": "Feature", "properties": { "name": "My. Girl - Milk Tea and Coffee", "amenity": "cafe", "cuisine": "bubble_tea", "facebook": null, "website": null }, "geometry": { "type": "Point", "coordinates": [ 120.9964961, 14.5882058 ] } },
{ "type": "Feature", "properties": { "name": "Happy Lemon", "amenity": "cafe", "cuisine": null, "facebook": null, "website": null }, "geometry": { "type": "Point", "coordinates": [ 120.9823734, 14.5902987 ] } },
{ "type": "Feature", "properties": { "name": "Chatime", "amenity": "cafe", "cuisine": "bubble_tea", "facebook": null, "website": null }, "geometry": { "type": "Point", "coordinates": [ 120.9838747, 14.5898185 ] } },
{ "type": "Feature", "properties": { "name": "Mary Grace", "amenity": "cafe", "cuisine": null, "facebook": null, "website": null }, "geometry": { "type": "Point", "coordinates": [ 120.9837346, 14.5897562 ] } },
{ "type": "Feature", "properties": { "name": "The French Baker", "amenity": "cafe", "cuisine": null, "facebook": null, "website": null }, "geometry": { "type": "Point", "coordinates": [ 120.983231, 14.5902649 ] } },
{ "type": "Feature", "properties": { "name": "CoCo Fresh Tea & Juice", "amenity": "cafe", "cuisine": null, "facebook": null, "website": null }, "geometry": { "type": "Point", "coordinates": [ 120.9824297, 14.5900936 ] } },
{ "type": "Feature", "properties": { "name": "Gong Cha", "amenity": "cafe", "cuisine": "bubble_tea", "facebook": null, "website": null }, "geometry": { "type": "Point", "coordinates": [ 120.9834895, 14.590121 ] } },
{ "type": "Feature", "properties": { "name": "Coffee Corner", "amenity": "cafe", "cuisine": null, "facebook": null, "website": null }, "geometry": { "type": "Point", "coordinates": [ 120.9833166, 14.5901803 ] } },
{ "type": "Feature", "properties": { "name": "The Brewed Buddies", "amenity": "cafe", "cuisine": null, "facebook": null, "website": null }, "geometry": { "type": "Point", "coordinates": [ 120.9835405, 14.5901974 ] } },
{ "type": "Feature", "properties": { "name": "Coast Milk Tea Shop", "amenity": "cafe", "cuisine": "bubble_tea", "facebook": null, "website": null }, "geometry": { "type": "Point", "coordinates": [ 120.9954627, 14.5622789 ] } },
{ "type": "Feature", "properties": { "name": "Gong Cha", "amenity": "cafe", "cuisine": "bubble_tea", "facebook": null, "website": null }, "geometry": { "type": "Point", "coordinates": [ 120.9941784, 14.5653773 ] } },
{ "type": "Feature", "properties": { "name": "Highlands Coffee", "amenity": "cafe", "cuisine": null, "facebook": null, "website": null }, "geometry": { "type": "Point", "coordinates": [ 120.9834798, 14.5764249 ] } },
{ "type": "Feature", "properties": { "name": "Starbucks", "amenity": "cafe", "cuisine": null, "facebook": null, "website": null }, "geometry": { "type": "Point", "coordinates": [ 120.9840048, 14.5751691 ] } },
{ "type": "Feature", "properties": { "name": "BLK 513", "amenity": "cafe", "cuisine": null, "facebook": null, "website": null }, "geometry": { "type": "Point", "coordinates": [ 120.9848176, 14.5754975 ] } },
{ "type": "Feature", "properties": { "name": "J. Co", "amenity": "cafe", "cuisine": null, "facebook": null, "website": null }, "geometry": { "type": "Point", "coordinates": [ 120.9833899, 14.5760926 ] } },
{ "type": "Feature", "properties": { "name": "Lugang Cafe", "amenity": "cafe", "cuisine": null, "facebook": null, "website": null }, "geometry": { "type": "Point", "coordinates": [ 120.9846217, 14.5753028 ] } },
{ "type": "Feature", "properties": { "name": "UCC Clockwork", "amenity": "cafe", "cuisine": null, "facebook": null, "website": null }, "geometry": { "type": "Point", "coordinates": [ 120.9845279, 14.5749822 ] } },
{ "type": "Feature", "properties": { "name": "Black Scoop", "amenity": "cafe", "cuisine": "bubble_tea;coffee_shop", "facebook": null, "website": null }, "geometry": { "type": "Point", "coordinates": [ 120.98506, 14.6196451 ] } },
{ "type": "Feature", "properties": { "name": "0402 Coffee", "amenity": "cafe", "cuisine": null, "facebook": null, "website": null }, "geometry": { "type": "Point", "coordinates": [ 120.9915767, 14.612291 ] } },
{ "type": "Feature", "properties": { "name": "Heavens Brew", "amenity": "cafe", "cuisine": null, "facebook": null, "website": null }, "geometry": { "type": "Point", "coordinates": [ 120.9986312, 14.6161448 ] } },
{ "type": "Feature", "properties": { "name": "Cafe Alnardo", "amenity": "cafe", "cuisine": null, "facebook": null, "website": null }, "geometry": { "type": "Point", "coordinates": [ 120.9937699, 14.6165316 ] } },
{ "type": "Feature", "properties": { "name": "Baa Baa Thai Tea", "amenity": "cafe", "cuisine": "bubble_tea", "facebook": null, "website": null }, "geometry": { "type": "Point", "coordinates": [ 120.995041, 14.6178876 ] } },
{ "type": "Feature", "properties": { "name": "Perere's Cafe", "amenity": "cafe", "cuisine": null, "facebook": null, "website": null }, "geometry": { "type": "Point", "coordinates": [ 120.9933391, 14.6181047 ] } },
{ "type": "Feature", "properties": { "name": "Frapatea", "amenity": "cafe", "cuisine": "bubble_tea", "facebook": null, "website": null }, "geometry": { "type": "Point", "coordinates": [ 120.9897686, 14.6228819 ] } },
{ "type": "Feature", "properties": { "name": "East Cafe", "amenity": "cafe", "cuisine": null, "facebook": null, "website": null }, "geometry": { "type": "Point", "coordinates": [ 120.9912059, 14.6216955 ] } },
{ "type": "Feature", "properties": { "name": "Kape Ni Bossing", "amenity": "cafe", "cuisine": "coffee_shop", "facebook": null, "website": null }, "geometry": { "type": "Point", "coordinates": [ 120.9929106, 14.6199137 ] } },
{ "type": "Feature", "properties": { "name": "BigBrew", "amenity": "cafe", "cuisine": "bubble_tea", "facebook": null, "website": null }, "geometry": { "type": "Point", "coordinates": [ 120.993634, 14.6188544 ] } },
{ "type": "Feature", "properties": { "name": "Meet Cute Cafe", "amenity": "cafe", "cuisine": null, "facebook": null, "website": null }, "geometry": { "type": "Point", "coordinates": [ 120.9952964, 14.617389 ] } },
{ "type": "Feature", "properties": { "name": "29:11 Cafe", "amenity": "cafe", "cuisine": "bubble_tea", "facebook": null, "website": null }, "geometry": { "type": "Point", "coordinates": [ 120.9635195, 14.6183169 ] } },
{ "type": "Feature", "properties": { "name": "Zero Degree Espresso Bar", "amenity": "cafe", "cuisine": "coffee_shop", "facebook": null, "website": null }, "geometry": { "type": "Point", "coordinates": [ 121.0036909, 14.6100843 ] } },
{ "type": "Feature", "properties": { "name": "Pickup Coffee", "amenity": "cafe", "cuisine": "coffee_shop", "facebook": null, "website": null }, "geometry": { "type": "Point", "coordinates": [ 121.0215055, 14.5955933 ] } },
{ "type": "Feature", "properties": { "name": "Calle Cafe by Don Gabriel", "amenity": "cafe", "cuisine": "coffee_shop", "facebook": null, "website": null }, "geometry": { "type": "Point", "coordinates": [ 120.9896555, 14.6065947 ] } },
{ "type": "Feature", "properties": { "name": "Sumu Cafe & Creative Space", "amenity": "cafe", "cuisine": "coffee_shop;pastry", "facebook": null, "website": null }, "geometry": { "type": "Point", "coordinates": [ 120.98885, 14.6063928 ] } },
{ "type": "Feature", "properties": { "name": "Dunkin'", "amenity": "cafe", "cuisine": null, "facebook": null, "website": null }, "geometry": { "type": "Point", "coordinates": [ 121.0121129, 14.5817245 ] } },
{ "type": "Feature", "properties": { "name": "Starbucks - Noble Place Binondo", "amenity": "cafe", "cuisine": "coffee_shop", "facebook": null, "website": null }, "geometry": { "type": "Point", "coordinates": [ 120.9754884, 14.5967563 ] } },
{ "type": "Feature", "properties": { "name": "Brew Point", "amenity": "cafe", "cuisine": null, "facebook": null, "website": null }, "geometry": { "type": "Point", "coordinates": [ 120.9765037, 14.5950665 ] } },
{ "type": "Feature", "properties": { "name": "Starbucks", "amenity": "cafe", "cuisine": "coffee_shop", "facebook": null, "website": null }, "geometry": { "type": "Point", "coordinates": [ 121.0121032, 14.6020555 ] } },
{ "type": "Feature", "properties": { "name": "PapJap", "amenity": "cafe", "cuisine": "japanese", "facebook": null, "website": null }, "geometry": { "type": "Point", "coordinates": [ 120.9881095, 14.6122118 ] } },
{ "type": "Feature", "properties": { "name": "Coffee Project", "amenity": "cafe", "cuisine": null, "facebook": null, "website": null }, "geometry": { "type": "Point", "coordinates": [ 120.9892636, 14.6062003 ] } },
{ "type": "Feature", "properties": { "name": "Mary Grace", "amenity": "cafe", "cuisine": null, "facebook": null, "website": null }, "geometry": { "type": "Point", "coordinates": [ 120.9842321, 14.5752755 ] } },
{ "type": "Feature", "properties": { "name": "Caramia", "amenity": "cafe", "cuisine": null, "facebook": null, "website": null }, "geometry": { "type": "Point", "coordinates": [ 120.9844357, 14.5753662 ] } },
{ "type": "Feature", "properties": { "name": "Paik's Coffee", "amenity": "cafe", "cuisine": null, "facebook": null, "website": null }, "geometry": { "type": "Point", "coordinates": [ 120.9841354, 14.5767859 ] } },
{ "type": "Feature", "properties": { "name": "The Coffee Bean & Tea Leaf", "amenity": "cafe", "cuisine": null, "facebook": null, "website": null }, "geometry": { "type": "Point", "coordinates": [ 120.9843538, 14.5749462 ] } },
{ "type": "Feature", "properties": { "name": "Conti's Bakery and Cafe", "amenity": "cafe", "cuisine": null, "facebook": null, "website": null }, "geometry": { "type": "Point", "coordinates": [ 120.9844393, 14.5750804 ] } },
{ "type": "Feature", "properties": { "name": "Kape Siklo", "amenity": "cafe", "cuisine": "coffee_shop", "facebook": null, "website": null }, "geometry": { "type": "Point", "coordinates": [ 121.0067057, 14.5744607 ] } },
{ "type": "Feature", "properties": { "name": "D'Urban Cafe", "amenity": "cafe", "cuisine": null, "facebook": null, "website": null }, "geometry": { "type": "Point", "coordinates": [ 120.9878887, 14.6044417 ] } },
{ "type": "Feature", "properties": { "name": "Tomoro Coffee", "amenity": "cafe", "cuisine": null, "facebook": null, "website": null }, "geometry": { "type": "Point", "coordinates": [ 120.9878372, 14.6043319 ] } },
{ "type": "Feature", "properties": { "name": "Calle Cafe", "amenity": "cafe", "cuisine": null, "facebook": null, "website": null }, "geometry": { "type": "Point", "coordinates": [ 120.9879466, 14.6047678 ] } },
{ "type": "Feature", "properties": { "name": "Obscure Cafe", "amenity": "cafe", "cuisine": null, "facebook": null, "website": null }, "geometry": { "type": "Point", "coordinates": [ 120.9876164, 14.6033851 ] } },
{ "type": "Feature", "properties": { "name": "Garden Cafe by Hotel H2O", "amenity": "cafe", "cuisine": null, "facebook": null, "website": null }, "geometry": { "type": "Point", "coordinates": [ 120.9728056, 14.5793748 ] } },
{ "type": "Feature", "properties": { "name": "Tim Hortons", "amenity": "cafe", "cuisine": "coffee_shop", "facebook": null, "website": null }, "geometry": { "type": "Point", "coordinates": [ 120.9842038, 14.5754986 ] } },
{ "type": "Feature", "properties": { "name": "Papa Kape", "amenity": "cafe", "cuisine": null, "facebook": null, "website": null }, "geometry": { "type": "Point", "coordinates": [ 120.9697355, 14.5946562 ] } },
{ "type": "Feature", "properties": { "name": "Zus Coffee", "amenity": "cafe", "cuisine": null, "facebook": null, "website": null }, "geometry": { "type": "Point", "coordinates": [ 120.9956689, 14.5788466 ] } },
{ "type": "Feature", "properties": { "name": "Bon Appetea", "amenity": "cafe", "cuisine": null, "facebook": null, "website": null }, "geometry": { "type": "Point", "coordinates": [ 120.9812978, 14.5808605 ] } },
{ "type": "Feature", "properties": { "name": "Cafe Esperanza", "amenity": "cafe", "cuisine": null, "facebook": null, "website": null }, "geometry": { "type": "Point", "coordinates": [ 120.9809585, 14.5806087 ] } },
{ "type": "Feature", "properties": { "name": "Auro Chocolate Cafe", "amenity": "cafe", "cuisine": "coffee_shop", "facebook": null, "website": null }, "geometry": { "type": "Point", "coordinates": [ 120.9924609, 14.5667119 ] } },
{ "type": "Feature", "properties": { "name": "éllatte coffee", "amenity": "cafe", "cuisine": null, "facebook": null, "website": null }, "geometry": { "type": "Point", "coordinates": [ 120.9943778, 14.5652746 ] } },
{ "type": "Feature", "properties": { "name": "Busy Dough", "amenity": "cafe", "cuisine": null, "facebook": null, "website": null }, "geometry": { "type": "Point", "coordinates": [ 120.9948657, 14.5651881 ] } },
{ "type": "Feature", "properties": { "name": "Station 85 Cafe", "amenity": "cafe", "cuisine": null, "facebook": null, "website": null }, "geometry": { "type": "Point", "coordinates": [ 120.9843936, 14.5736233 ] } },
{ "type": "Feature", "properties": { "name": "tomo coffee", "amenity": "cafe", "cuisine": null, "facebook": null, "website": null }, "geometry": { "type": "Point", "coordinates": [ 120.9946194, 14.5633048 ] } },
{ "type": "Feature", "properties": { "name": "Calle Cafe by don gabriel", "amenity": "cafe", "cuisine": null, "facebook": null, "website": null }, "geometry": { "type": "Point", "coordinates": [ 120.9947366, 14.5639989 ] } },
{ "type": "Feature", "properties": { "name": "Los Frailes Cafe", "amenity": "cafe", "cuisine": null, "facebook": null, "website": null }, "geometry": { "type": "Point", "coordinates": [ 120.9747584, 14.5893586 ] } },
{ "type": "Feature", "properties": { "name": "Grotto Hookah Lounge", "amenity": "cafe", "cuisine": "asian", "facebook": null, "website": null }, "geometry": { "type": "Point", "coordinates": [ 120.974185, 14.5916991 ] } },
{ "type": "Feature", "properties": { "name": "Feliza Cafe", "amenity": "cafe", "cuisine": null, "facebook": null, "website": null }, "geometry": { "type": "Point", "coordinates": [ 121.0002194, 14.5631494 ] } },
{ "type": "Feature", "properties": { "name": "D' Cream", "amenity": "cafe", "cuisine": null, "facebook": null, "website": null }, "geometry": { "type": "Point", "coordinates": [ 120.9692232, 14.598986 ] } }
]
}
